{"type": "FeatureCollection", "features": [{"type": "Feature", "properties": {"norad_id": 25590, "name": "COSMOS 2361", "group": "musson", "lat": -8.609853683322799, "lon": 172.03145520767853, "alt_km": 997.3255553049676, "timestamp": "2025-12-03T10:52:57.723000+00:00", "meta": {"OBJECT_NAME": "COSMOS 2361", "OBJECT_ID": "1998-076A", "EPOCH": "2025-12-03T03:16:39.347328", "MEAN_MOTION": 13.73215872, "ECCENTRICITY": 0.0030159, "INCLINATION": 82.9342, "RA_OF_ASC_NODE": 351.1897, "ARG_OF_PERICENTER": 293.4817, "MEAN_ANOMALY": 129.7779, "EPHEMERIS_TYPE": 0, "CLASSIFICATION_TYPE": "U", "NORAD_CAT_ID": 25590, "ELEMENT_SET_NO": 999, "REV_AT_EPOCH": 34979, "BSTAR": 8.141e-05, "MEAN_MOTION_DOT": 9e-07, "MEAN_MOTION_DDOT": 0}, "tle": {"line1": "1 25590U 98076A   25337.13656652  .00000090  00000+0  81410-4 0  9991", "line2": "2 25590  82.9342 351.1897 0030159 293.4817 129.7779 13.73215872349790"}}, "geometry": {"type": "Point", "coordinates": [172.03145520767853, -8.609853683322799]}}, {"type": "Feature", "properties": {"norad_id": 26818, "name": "COSMOS 2378", "group": "musson", "lat": -50.19210775022117, "lon": -164.822801204109, "alt_km": 968.1305665919544, "timestamp": "2025-12-03T10:52:57.723022+00:00", "meta": {"OBJECT_NAME": "COSMOS 2378", "OBJECT_ID": "2001-023A", "EPOCH": "2025-12-03T03:02:16.818720", "MEAN_MOTION": 13.74140638, "ECCENTRICITY": 0.003191, "INCLINATION": 82.928, "RA_OF_ASC_NODE": 6.8533, "ARG_OF_PERICENTER": 232.3539, "MEAN_ANOMALY": 182.248, "EPHEMERIS_TYPE": 0, "CLASSIFICATION_TYPE": "U", "NORAD_CAT_ID": 26818, "ELEMENT_SET_NO": 999, "REV_AT_EPOCH": 22791, "BSTAR": 6.5122e-05, "MEAN_MOTION_DOT": 7.6e-07, "MEAN_MOTION_DDOT": 0}, "tle": {"line1": "1 26818U 01023A   25337.12658355  .00000076  00000+0  65122-4 0  9998", "line2": "2 26818  82.9280   6.8533 0031910 232.3539 182.2480 13.74140638227915"}}, "geometry": {"type": "Point", "coordinates": [-164.822801204109, -50.19210775022117]}}, {"type": "Feature", "properties": {"norad_id": 27436, "name": "COSMOS 2389", "group": "musson", "lat": 42.924120593066846, "lon": -39.53047786953087, "alt_km": 951.54178353301, "timestamp": "2025-12-03T10:52:57.723036+00:00", "meta": {"OBJECT_NAME": "COSMOS 2389", "OBJECT_ID": "2002-026A", "EPOCH": "2025-12-02T22:45:19.156032", "MEAN_MOTION": 13.75153071, "ECCENTRICITY": 0.0047787, "INCLINATION": 82.9494, "RA_OF_ASC_NODE": 314.2342, "ARG_OF_PERICENTER": 87.3287, "MEAN_ANOMALY": 336.3106, "EPHEMERIS_TYPE": 0, "CLASSIFICATION_TYPE": "U", "NORAD_CAT_ID": 27436, "ELEMENT_SET_NO": 999, "REV_AT_EPOCH": 18014, "BSTAR": 6.9714e-05, "MEAN_MOTION_DOT": 8.3e-07, "MEAN_MOTION_DDOT": 0}, "tle": {"line1": "1 27436U 02026A   25336.94813838  .00000083  00000+0  69714-4 0  9996", "line2": "2 27436  82.9494 314.2342 0047787  87.3287 336.3106 13.75153071180146"}}, "geometry": {"type": "Point", "coordinates": [-39.53047786953087, 42.924120593066846]}}, {"type": "Feature", "properties": {"norad_id": 27818, "name": "COSMOS 2398", "group": "musson", "lat": 82.80943809788617, "lon": -1.5858778004692278, "alt_km": 967.6565963517942, "timestamp": "2025-12-03T10:52:57.723048+00:00", "meta": {"OBJECT_NAME": "COSMOS 2398", "OBJECT_ID": "2003-023A", "EPOCH": "2025-12-03T03:30:29.206368", "MEAN_MOTION": 13.72384251, "ECCENTRICITY": 0.0032213, "INCLINATION": 82.9475, "RA_OF_ASC_NODE": 279.7683, "ARG_OF_PERICENTER": 137.5549, "MEAN_ANOMALY": 234.0759, "EPHEMERIS_TYPE": 0, "CLASSIFICATION_TYPE": "U", "NORAD_CAT_ID": 27818, "ELEMENT_SET_NO": 999, "REV_AT_EPOCH": 12685, "BSTAR": 4.5239e-05, "MEAN_MOTION_DOT": 5.7e-07, "MEAN_MOTION_DDOT": 0}, "tle": {"line1": "1 27818U 03023A   25337.14617137  .00000057  00000+0  45239-4 0  9992", "line2": "2 27818  82.9475 279.7683 0032213 137.5549 234.0759 13.72384251126858"}}, "geometry": {"type": "Point", "coordinates": [-1.5858778004692278, 82.80943809788617]}}, {"type": "Feature", "properties": {"norad_id": 28380, "name": "COSMOS 2407", "group": "musson", "lat": 25.753991309080778, "lon": 36.35062129750395, "alt_km": 967.7223487570363, "timestamp": "2025-12-03T10:52:57.723060+00:00", "meta": {"OBJECT_NAME": "COSMOS 2407", "OBJECT_ID": "2004-028A", "EPOCH": "2025-12-03T03:41:25.834272", "MEAN_MOTION": 13.76311996, "ECCENTRICITY": 0.0040531, "INCLINATION": 82.9614, "RA_OF_ASC_NODE": 219.9894, "ARG_OF_PERICENTER": 80.8365, "MEAN_ANOMALY": 28.6871, "EPHEMERIS_TYPE": 0, "CLASSIFICATION_TYPE": "U", "NORAD_CAT_ID": 28380, "ELEMENT_SET_NO": 999, "REV_AT_EPOCH": 7291, "BSTAR": 9.2931e-05, "MEAN_MOTION_DOT": 1.07e-06, "MEAN_MOTION_DDOT": 0}, "tle": {"line1": "1 28380U 04028A   25337.15377123  .00000107  00000+0  92931-4 0  9999", "line2": "2 28380  82.9614 219.9894 0040531  80.8365  28.6871 13.76311996 72915"}}, "geometry": {"type": "Point", "coordinates": [36.35062129750395, 25.753991309080778]}}, {"type": "Feature", "properties": {"norad_id": 28521, "name": "COSMOS 2414", "group": "musson", "lat": 29.349605956109567, "lon": -164.3283091670997, "alt_km": 955.7024865892754, "timestamp": "2025-12-03T10:52:57.723072+00:00", "meta": {"OBJECT_NAME": "COSMOS 2414", "OBJECT_ID": "2005-002A", "EPOCH": "2025-12-03T02:05:18.373344", "MEAN_MOTION": 13.87900936, "ECCENTRICITY": 0.0040299, "INCLINATION": 82.9499, "RA_OF_ASC_NODE": 191.9586, "ARG_OF_PERICENTER": 166.814, "MEAN_ANOMALY": 193.4086, "EPHEMERIS_TYPE": 0, "CLASSIFICATION_TYPE": "U", "NORAD_CAT_ID": 28521, "ELEMENT_SET_NO": 999, "REV_AT_EPOCH": 5661, "BSTAR": 8.3699e-05, "MEAN_MOTION_DOT": 1.16e-06, "MEAN_MOTION_DDOT": 0}, "tle": {"line1": "1 28521U 05002A   25337.08701821  .00000116  00000+0  83699-4 0  9998", "line2": "2 28521  82.9499 191.9586 0040299 166.8140 193.4086 13.87900936 56615"}}, "geometry": {"type": "Point", "coordinates": [-164.3283091670997, 29.349605956109567]}}, {"type": "Feature", "properties": {"norad_id": 32052, "name": "COSMOS 2429", "group": "musson", "lat": -49.49950054191212, "lon": 178.4492623608542, "alt_km": 1016.4156705551186, "timestamp": "2025-12-03T10:52:57.723083+00:00", "meta": {"OBJECT_NAME": "COSMOS 2429", "OBJECT_ID": "2007-038A", "EPOCH": "2025-12-03T02:47:07.495872", "MEAN_MOTION": 13.75147992, "ECCENTRICITY": 0.003964, "INCLINATION": 82.9805, "RA_OF_ASC_NODE": 350.4039, "ARG_OF_PERICENTER": 64.0381, "MEAN_ANOMALY": 296.4851, "EPHEMERIS_TYPE": 0, "CLASSIFICATION_TYPE": "U", "NORAD_CAT_ID": 32052, "ELEMENT_SET_NO": 999, "REV_AT_EPOCH": 91470, "BSTAR": 7.4241e-05, "MEAN_MOTION_DOT": 8.7e-07, "MEAN_MOTION_DDOT": 0}, "tle": {"line1": "1 32052U 07038A   25337.11605898  .00000087  00000+0  74241-4 0  9994", "line2": "2 32052  82.9805 350.4039 0039640  64.0381 296.4851 13.75147992914708"}}, "geometry": {"type": "Point", "coordinates": [178.4492623608542, -49.49950054191212]}}, {"type": "Feature", "properties": {"norad_id": 35635, "name": "COSMOS 2454", "group": "musson", "lat": 12.148796727793412, "lon": 177.209495279856, "alt_km": 929.0636198922111, "timestamp": "2025-12-03T10:52:57.723094+00:00", "meta": {"OBJECT_NAME": "COSMOS 2454", "OBJECT_ID": "2009-039A", "EPOCH": "2025-12-03T02:44:51.040032", "MEAN_MOTION": 13.89926714, "ECCENTRICITY": 0.0020475, "INCLINATION": 82.9556, "RA_OF_ASC_NODE": 175.9412, "ARG_OF_PERICENTER": 99.467, "MEAN_ANOMALY": 17.9936, "EPHEMERIS_TYPE": 0, "CLASSIFICATION_TYPE": "U", "NORAD_CAT_ID": 35635, "ELEMENT_SET_NO": 999, "REV_AT_EPOCH": 83016, "BSTAR": 7.3095e-05, "MEAN_MOTION_DOT": 1.06e-06, "MEAN_MOTION_DDOT": 0}, "tle": {"line1": "1 35635U 09039A   25337.11447963  .00000106  00000+0  73095-4 0  9992", "line2": "2 35635  82.9556 175.9412 0020475  99.4670  17.9936 13.89926714830164"}}, "geometry": {"type": "Point", "coordinates": [177.209495279856, 12.148796727793412]}}, {"type": "Feature", "properties": {"norad_id": 36519, "name": "COSMOS 2463", "group": "musson", "lat": -56.38183405546301, "lon": 22.82841125578622, "alt_km": 975.3683382460495, "timestamp": "2025-12-03T10:52:57.723105+00:00", "meta": {"OBJECT_NAME": "COSMOS 2463", "OBJECT_ID": "2010-017A", "EPOCH": "2025-12-03T02:31:10.216704", "MEAN_MOTION": 13.71647794, "ECCENTRICITY": 0.0035108, "INCLINATION": 82.9621, "RA_OF_ASC_NODE": 33.7922, "ARG_OF_PERICENTER": 315.6881, "MEAN_ANOMALY": 67.6819, "EPHEMERIS_TYPE": 0, "CLASSIFICATION_TYPE": "U", "NORAD_CAT_ID": 36519, "ELEMENT_SET_NO": 999, "REV_AT_EPOCH": 78105, "BSTAR": 7.4931e-05, "MEAN_MOTION_DOT": 8.3e-07, "MEAN_MOTION_DDOT": 0}, "tle": {"line1": "1 36519U 10017A   25337.10497936  .00000083  00000+0  74931-4 0  9990", "line2": "2 36519  82.9621  33.7922 0035108 315.6881  67.6819 13.71647794781056"}}, "geometry": {"type": "Point", "coordinates": [22.82841125578622, -56.38183405546301]}}]}